NORAD_CAT_ID,OBJECT_NAME,OBJECT_TYPE,EPOCH,MEAN_MOTION,ECCENTRICITY,INCLINATION,RA_OF_ASC_NODE,ARG_OF_PERICENTER,MEAN_ANOMALY,BSTAR,MEAN_MOTION_DOT,MEAN_MOTION_DDOT,TLE_LINE0,TLE_LINE1,TLE_LINE2,SEMIMAJOR_AXIS,PERIOD,APOGEE,PERIGEE,DECAYED
53843.0,STARLINK-4769,PAYLOAD,2023-09-29 14:09:52,15.0884709,0.0001891,53.2178,339.0001,86.9946,273.1263,0.00015366,2.159e-05,0.0,0 STARLINK-4769,1 53843U 22114AB  23272.59019322  .00002159  00000-0  15366-3 0  9991,2 53843  53.2178 339.0001 0001891  86.9946 273.1263 15.08847090 57758,6917.859,95.437,541.032,538.416,0.0
53843.0,STARLINK-4769,PAYLOAD,2023-09-29 23:42:11,15.08851687,0.0001536,53.2164,337.2145,95.4774,264.6394,0.00021422,3.124e-05,0.0,0 STARLINK-4769,1 53843U 22114AB  23272.98763269  .00003124  00000-0  21422-3 0  9993,2 53843  53.2164 337.2145 0001536  95.4774 264.6394 15.08851687 58356,6917.845,95.437,540.772,538.647,0.0
53843.0,STARLINK-4769,PAYLOAD,2023-09-30 23:32:57,15.08852179,0.0001494,53.2158,332.7548,83.9406,276.1757,0.00021713,3.17e-05,0.0,0 STARLINK-4769,1 53843U 22114AB  23273.98122683  .00003170  00000-0  21713-3 0  9997,2 53843  53.2158 332.7548 0001494  83.9406 276.1757 15.08852179 57967,6917.843,95.437,540.742,538.675,0.0
53843.0,STARLINK-4769,PAYLOAD,2023-10-01 10:40:40,15.08845184,0.0001474,53.2178,330.6742,84.2505,275.8655,6.0122e-05,6.69e-06,0.0,0 STARLINK-4769,1 53843U 22114AB  23274.44490877  .00000669  00000-0  60122-4 0  9990,2 53843  53.2178 330.6742 0001474  84.2505 275.8655 15.08845184 58034,6917.865,95.437,540.749,538.71,0.0
53843.0,STARLINK-4769,PAYLOAD,2023-10-01 13:51:26,15.08848343,0.0001374,53.2167,330.0766,83.7653,276.3495,5.5357e-05,5.93e-06,0.0,0 STARLINK-4769,1 53843U 22114AB  23274.57738591  .00000593  00000-0  55357-4 0  9992,2 53843  53.2167 330.0766 0001374  83.7653 276.3495 15.08848343 58598,6917.855,95.437,540.67,538.769,0.0
53843.0,STARLINK-4769,PAYLOAD,2023-10-02 10:31:28,15.08829117,0.0001569,53.2168,326.2141,82.8413,277.2758,-0.00015945,-2.824e-05,0.0,0 STARLINK-4769,1 53843U 22114AB  23275.43851853 -.00002824  00000-0 -15945-3 0  9994,2 53843  53.2168 326.2141 0001569  82.8413 277.2758 15.08829117 58188,6917.914,95.438,540.864,538.693,0.0
53843.0,STARLINK-4769,PAYLOAD,2023-10-02 20:03:46,15.08836049,0.0001577,53.217,324.4289,83.6751,276.4421,-7.2918e-05,-1.448e-05,0.0,0 STARLINK-4769,1 53843U 22114AB  23275.83595641 -.00001448  00000-0 -72918-4 0  9993,2 53843  53.2170 324.4289 0001577  83.6751 276.4421 15.08836049 58783,6917.892,95.438,540.848,538.667,0.0
53843.0,STARLINK-4769,PAYLOAD,2023-10-03 04:00:42,15.08837475,0.0001492,53.2163,322.9414,83.1371,276.9791,0.00019329,2.789e-05,0.0,0 STARLINK-4769,1 53843U 22114AB  23276.16715803  .00002789  00000-0  19329-3 0  9997,2 53843  53.2163 322.9414 0001492  83.1371 276.9791 15.08837475 58292,6917.888,95.438,540.785,538.721,0.0
53843.0,STARLINK-4769,PAYLOAD,2023-10-03 10:22:14,15.08852658,0.0001556,53.2163,321.7527,80.9702,279.1466,0.00062214,9.631e-05,0.0,0 STARLINK-4769,1 53843U 22114AB  23276.43211538  .00009631  00000-0  62214-3 0  9997,2 53843  53.2163 321.7527 0001556  80.9702 279.1466 15.08852658 58337,6917.842,95.437,540.783,538.63,0.0
53843.0,STARLINK-4769,PAYLOAD,2023-10-03 13:33:00,15.08861555,0.0001597,53.2162,321.1576,78.0693,282.0478,0.00093519,0.00014636,0.0,0 STARLINK-4769,1 53843U 22114AB  23276.56459406  .00014636  00000-0  93519-3 0  9992,2 53843  53.2162 321.1576 0001597  78.0693 282.0478 15.08861555 58899,6917.815,95.436,540.784,538.575,0.0
53843.0,STARLINK-4769,PAYLOAD,2023-10-04 10:13:01,15.08855061,0.0001621,53.2162,317.293,90.9484,269.1694,0.00066722,0.00010351,0.0,0 STARLINK-4769,1 53843U 22114AB  23277.42571498  .00010351  00000-0  66722-3 0  9990,2 53843  53.2162 317.2930 0001621  90.9484 269.1694 15.08855061 58484,6917.834,95.437,540.821,538.578,0.0
53843.0,STARLINK-4769,PAYLOAD,2023-10-04 11:48:24,15.08860289,0.0001636,53.2162,316.9956,91.5303,268.5877,0.00093787,0.00014678,0.0,0 STARLINK-4769,1 53843U 22114AB  23277.49195434  .00014678  00000-0  93787-3 0  9996,2 53843  53.2162 316.9956 0001636  91.5303 268.5877 15.08860289 59037,6917.818,95.436,540.815,538.552,0.0
53843.0,STARLINK-4769,PAYLOAD,2023-10-04 21:20:43,15.08825373,0.0001741,53.2161,315.2116,87.4814,272.6378,0.0013799,0.00021733,0.0,0 STARLINK-4769,1 53843U 22114AB  23277.88939611  .00021733  00000-0  13799-2 0  9996,2 53843  53.2161 315.2116 0001741  87.4814 272.6378 15.08825373 59097,6917.925,95.438,540.995,538.586,0.0
53843.0,STARLINK-4769,PAYLOAD,2023-10-05 02:06:53,15.08825381,0.0001669,53.2155,314.3186,92.7657,267.3527,0.0011286,0.00017712,0.0,0 STARLINK-4769,1 53843U 22114AB  23278.08811856  .00017712  00000-0  11286-2 0  9990,2 53843  53.2155 314.3186 0001669  92.7657 267.3527 15.08825381 58589,6917.925,95.438,540.945,538.635,0.0
53843.0,STARLINK-4769,PAYLOAD,2023-10-05 10:03:49,15.08841764,0.0001795,53.2159,312.8321,79.8894,280.2301,0.0011545,0.00018135,0.0,0 STARLINK-4769,1 53843U 22114AB  23278.41931983  .00018135  00000-0  11545-2 0  9999,2 53843  53.2159 312.8321 0001795  79.8894 280.2301 15.08841764 59179,6917.875,95.437,540.982,538.498,0.0
53843.0,STARLINK-4769,PAYLOAD,2023-10-05 19:36:08,15.08834999,0.0001671,53.216,311.0472,89.1613,270.957,0.0002407,3.544e-05,0.0,0 STARLINK-4769,1 53843U 22114AB  23278.81676058  .00003544  00000-0  24070-3 0  9998,2 53843  53.2160 311.0472 0001671  89.1613 270.9570 15.08834999 58697,6917.896,95.438,540.917,538.605,0.0
53843.0,STARLINK-4769,PAYLOAD,2023-10-06 09:54:36,15.08854211,0.0001611,53.2159,308.3711,85.1356,274.982,0.0016955,0.0002681,0.0,0 STARLINK-4769,1 53843U 22114AB  23279.41291947  .00026810  00000-0  16955-2 0  9998,2 53843  53.2159 308.3711 0001611  85.1356 274.9820 15.08854211 58785,6917.837,95.437,540.816,538.587,0.0
53843.0,STARLINK-4769,PAYLOAD,2023-10-06 19:26:55,15.08851451,0.0001693,53.2169,306.5864,90.6293,269.4893,0.0012356,0.00019437,0.0,0 STARLINK-4769,1 53843U 22114AB  23279.81035997  .00019437  00000-0  12356-2 0  9991,2 53843  53.2169 306.5864 0001693  90.6293 269.4893 15.08851451 58845,6917.845,95.437,540.882,538.539,0.0
53843.0,STARLINK-4769,PAYLOAD,2023-10-07 01:48:27,15.08848761,0.0001835,53.2155,305.3979,98.8428,261.2772,0.0010459,0.00016401,0.0,0 STARLINK-4769,1 53843U 22114AB  23280.07532091  .00016401  00000-0  10459-2 0  9998,2 53843  53.2155 305.3979 0001835  98.8428 261.2772 15.08848761 58882,6917.854,95.437,540.988,538.449,0.0
53843.0,STARLINK-4769,PAYLOAD,2023-10-07 08:10:00,15.08846928,0.0001759,53.2161,304.2074,99.5231,260.596,0.00045593,6.977e-05,0.0,0 STARLINK-4769,1 53843U 22114AB  23280.34027979  .00006977  00000-0  45593-3 0  9997,2 53843  53.2161 304.2074 0001759  99.5231 260.5960 15.08846928 58927,6917.859,95.437,540.941,538.507,0.0
53843.0,STARLINK-4769,PAYLOAD,2023-10-07 12:56:09,15.08851575,0.0001801,53.2164,303.3134,106.6311,253.4879,0.00089168,0.00013936,0.0,0 STARLINK-4769,1 53843U 22114AB  23280.53899805  .00013936  00000-0  89168-3 0  9992,2 53843  53.2164 303.3134 0001801 106.6311 253.4879 15.08851575 59491,6917.845,95.437,540.956,538.464,0.0
53843.0,STARLINK-4769,PAYLOAD,2023-10-07 19:17:42,15.08828846,0.0001804,53.2173,302.1221,113.6838,246.4344,8.0697e-06,-1.6e-06,0.0,0 STARLINK-4769,1 53843U 22114AB  23280.80396248 -.00000160  00000-0  80697-5 0  9991,2 53843  53.2173 302.1221 0001804 113.6838 246.4344 15.08828846 58998,6917.914,95.438,541.027,538.531,0.0
53843.0,STARLINK-4769,PAYLOAD,2023-10-08 08:00:47,15.08844042,0.0001853,53.2169,299.748,86.4857,273.6347,0.00036379,5.507e-05,0.0,0 STARLINK-4769,1 53843U 22114AB  23281.33388351  .00005507  00000-0  36379-3 0  9991,2 53843  53.2169 299.7480 0001853  86.4857 273.6347 15.08844042 59074,6917.868,95.437,541.015,538.451,0.0
53843.0,STARLINK-4769,PAYLOAD,2023-10-08 12:46:56,15.08851029,0.0001869,53.2171,298.8554,89.6885,270.4321,0.00059178,9.146e-05,0.0,0 STARLINK-4769,1 53843U 22114AB  23281.53260167  .00009146  00000-0  59178-3 0  9992,2 53843  53.2171 298.8554 0001869  89.6885 270.4321 15.08851029 59645,6917.847,95.437,541.005,538.419,0.0
53843.0,STARLINK-4769,PAYLOAD,2023-10-09 01:30:02,15.08846442,0.000213,53.2167,296.4745,88.8445,271.2791,0.00047531,7.286e-05,0.0,0 STARLINK-4769,1 53843U 22114AB  23282.06252500  .00007286  00000-0  47531-3 0  9996,2 53843  53.2167 296.4745 0002130  88.8445 271.2791 15.08846442 59183,6917.861,95.437,541.199,538.252,0.0
53843.0,STARLINK-4769,PAYLOAD,2023-10-09 12:37:43,15.08867931,0.0001777,53.2173,294.3944,83.6233,276.4961,0.0011179,0.00017562,0.0,0 STARLINK-4769,1 53843U 22114AB  23282.52619896  .00017562  00000-0  11179-2 0  9998,2 53843  53.2173 294.3944 0001777  83.6233 276.4961 15.08867931 59791,6917.795,95.436,540.889,538.431,0.0
53843.0,STARLINK-4769,PAYLOAD,2023-10-09 17:23:53,15.08836442,0.0002219,53.2172,293.5019,89.8368,270.2879,0.00010671,1.41e-05,0.0,0 STARLINK-4769,1 53843U 22114AB  23282.72492591  .00001410  00000-0  10671-3 0  9993,2 53843  53.2172 293.5019 0002219  89.8368 270.2879 15.08836442 59280,6917.891,95.438,541.291,538.221,0.0
53843.0,STARLINK-4769,PAYLOAD,2023-10-10 07:42:21,15.08853809,0.0001736,53.2166,290.8269,100.1738,259.945,0.0018867,0.00029878,0.0,0 STARLINK-4769,1 53843U 22114AB  23283.32108249  .00029878  00000-0  18867-2 0  9996,2 53843  53.2166 290.8269 0001736 100.1738 259.9450 15.08853809 59376,6917.838,95.437,540.904,538.502,0.0
53843.0,STARLINK-4769,PAYLOAD,2023-10-10 12:28:30,15.08863853,0.0001708,53.2165,289.9347,99.1813,260.9373,0.0016548,0.00026164,0.0,0 STARLINK-4769,1 53843U 22114AB  23283.51979970  .00026164  00000-0  16548-2 0  9993,2 53843  53.2165 289.9347 0001708  99.1813 260.9373 15.08863853 59940,6917.807,95.436,540.854,538.491,0.0
53843.0,STARLINK-4769,PAYLOAD,2023-10-10 17:14:40,15.08838355,0.0002758,53.2168,289.0416,84.8764,275.2543,0.00059342,9.168e-05,0.0,0 STARLINK-4769,1 53843U 22114AB  23283.71852868  .00009168  00000-0  59342-3 0  9996,2 53843  53.2168 289.0416 0002758  84.8764 275.2543 15.08838355 59434,6917.885,95.438,541.658,537.842,0.0
